STARLINK-1625
1 46131U 20057Q   26092.78081838  .01215994  86133-3  16626-2 0  9999
2 46131  53.0355 124.9829 0008235  13.3716 346.7533 16.05731419312129
